[{"OBJECT_NAME":"AC1-003","OBJECT_ID":"2025-276Z","EPOCH":"2026-03-09T17:12:51.689952","MEAN_MOTION":15.17742943,"ECCENTRICITY":0.0003195,"INCLINATION":97.4278,"RA_OF_ASC_NODE":143.9026,"ARG_OF_PERICENTER":29.6743,"MEAN_ANOMALY":330.4672,"EPHEMERIS_TYPE":0,"CLASSIFICATION_TYPE":"U","NORAD_CAT_ID":66689,"ELEMENT_SET_NO":999,"REV_AT_EPOCH":1531,"BSTAR":0.00015796492,"MEAN_MOTION_DOT":3.121e-5,"MEAN_MOTION_DDOT":0},{"OBJECT_NAME":"OKEAN-2","OBJECT_ID":"1990-018A","EPOCH":"2026-03-09T23:36:10.183680","MEAN_MOTION":15.15649196,"ECCENTRICITY":0.00049727,"INCLINATION":82.5017,"RA_OF_ASC_NODE":331.5686,"ARG_OF_PERICENTER":303.4328,"MEAN_ANOMALY":67.9927,"EPHEMERIS_TYPE":0,"CLASSIFICATION_TYPE":"U","NORAD_CAT_ID":20510,"ELEMENT_SET_NO":999,"REV_AT_EPOCH":93903,"BSTAR":0.00028442133,"MEAN_MOTION_DOT":5.437e-5,"MEAN_MOTION_DDOT":0}]
